[{"OBJECT_NAME":"STARLINK-32812","OBJECT_ID":"2025-034K","EPOCH":"2026-03-09T19:26:09.721536","MEAN_MOTION":15.30192387,"ECCENTRICITY":0.00010183,"INCLINATION":53.1576,"RA_OF_ASC_NODE":257.6733,"ARG_OF_PERICENTER":82.7818,"MEAN_ANOMALY":277.3298,"EPHEMERIS_TYPE":0,"CLASSIFICATION_TYPE":"U","NORAD_CAT_ID":63038,"ELEMENT_SET_NO":999,"REV_AT_EPOCH":5910,"BSTAR":0.0008729409,"MEAN_MOTION_DOT":0.00025578,"MEAN_MOTION_DDOT":0},{"OBJECT_NAME":"FENGYUN 1C DEB","OBJECT_ID":"1999-025DFY","EPOCH":"2026-03-03T06:55:21.899424","MEAN_MOTION":15.25006274,"ECCENTRICITY":0.01038057,"INCLINATION":98.9901,"RA_OF_ASC_NODE":88.6648,"ARG_OF_PERICENTER":65.5781,"MEAN_ANOMALY":295.624,"EPHEMERIS_TYPE":0,"CLASSIFICATION_TYPE":"U","NORAD_CAT_ID":33687,"ELEMENT_SET_NO":999,"REV_AT_EPOCH":72733,"BSTAR":0.001670914,"MEAN_MOTION_DOT":0.00048845,"MEAN_MOTION_DDOT":0}]
